CUBEBUG-2 (LO-74)       
1 39440U 13066AA  26161.09650600  .00003464  00000+0  32201-3 0  9995
2 39440  97.8902 110.0449 0059087  51.9853 308.6680 14.93705686675936
FUNCUBE-1 (AO-73)       
1 39444U 13066AE  26161.49372911  .00005047  00000+0  31555-3 0  9999
2 39444  97.8263 132.7998 0034999 224.2393 135.6036 15.09407831678653
UWE-3                   
1 39446U 13066AG  26161.13046369  .00003961  00000+0  34171-3 0  9997
2 39446  97.8685 117.1571 0048662 344.7844  15.1910 14.96967920676520
UNISAT-6                
1 40012U 14033C   26161.34253110  .00002394  00000+0  26042-3 0  9997
2 40012  97.7868 314.1760 0046427  91.2128 269.4408 14.88209392645141
DUCHIFAT-1              
1 40021U 14033M   26161.43136475  .00098092  00000+0  10616-2 0  9990
2 40021  98.0468 219.6499 0004198 126.9864 233.1777 15.63249626654696
QB50P1                  
1 40025U 14033R   26161.49333691  .00007323  00000+0  36199-3 0  9991
2 40025  98.0971 172.1703 0007230 241.8830 118.1672 15.18159274652019
LILACSAT-2              
1 40908U 15049K   26161.56399318  .00015772  00000+0  27090-3 0  9992
2 40908  97.4660 198.1544 0005285 277.2161  82.8490 15.51225431594720
FOX-1A (AO-85)          
1 40967U 15058D   26161.51087985  .00002296  00000+0  21272-3 0  9999
2 40967  64.7757 299.7308 0130049  59.2041 302.1796 14.90937275112571
CAS-2T & KS-1Q          
1 41847U 16066G   26161.45296843  .00001515  00000+0  21974-3 0  9997
2 41847  98.3822 237.2661 0342567 149.8520 212.2884 14.44671796503825
RADFXSAT (FOX-1B)       
1 43017U 17073E   26160.60079623  .00007602  00000+0  33267-3 0  9999
2 43017  97.4720  27.9710 0150699 355.5385   4.4491 15.12592571464246
DIWATA-2B               
1 43678U 18084H   26161.50102986  .00002208  00000+0  18058-3 0  9992
2 43678  98.1177 357.4195 0012147 192.0356 168.0578 15.00420141415214
ES'HAIL 2               
1 43700U 18090A   26161.27372632  .00000162  00000+0  00000+0 0  9997
2 43700   0.0130 295.1016 0001901 185.1228 262.7748  1.00273901 27606
FOX-1CLIFF (AO-95)      
1 43770U 18099N   26160.73658427  .00010631  00000+0  40880-3 0  9998
2 43770  97.4390 221.0109 0008751  24.8412 335.3246 15.26553683412087
ITASAT                  
1 43786U 18099AE  26161.30251726  .00006440  00000+0  31057-3 0  9999
2 43786  97.4034 212.9518 0012847  24.1662 336.0173 15.18970169411868
JY1SAT (JO-97)          
1 43803U 18099AX  26161.44021639  .00015949  00000+0  49534-3 0  9995
2 43803  97.4136 224.2518 0004138 295.7294  64.3520 15.33439241412594
UWE-4                   
1 43880U 18111E   26161.03023773  .00034515  00000+0  71453-3 0  9996
2 43880  97.5850  89.0931 0006904  11.8229 348.3181 15.45678034409678
TIANYAN 01              
1 44881U 19093C   26161.51540289  .00000769  00000+0  92842-4 0  9997
2 44881  97.7530 233.9102 0014983 106.4355 253.8508 14.86510103350421
RS-44 & BREEZE-KM R/B   
1 44909U 19096E   26161.51612502  .00000034  00000+0  85775-4 0  9991
2 44909  82.5217 344.1388 0217871 159.7203 201.2721 12.79748702301496
SALSAT                  
1 46495U 20068K   26161.27729316  .00007605  00000+0  26695-3 0  9995
2 46495  97.8853 163.9217 0008649 336.5873  23.4971 15.29700288314300
XW-3 (CAS-9)            
1 50466U 21131B   26161.52919373  .00000389  00000+0  13391-3 0  9993
2 50466  98.4971 253.9549 0005273 112.2169 247.9580 14.41351517234159
GREENCUBE (IO-117)      
1 53109U 22080E   26152.46502029 -.00000003  00000+0  00000+0 0  9996
2 53109  70.1435 303.7143 0008869 293.3663  66.6064  6.42583280 91055
UMKA 1 (RS40S)          
1 57172U 23091G   26161.44834685  .00005816  00000+0  26679-3 0  9997
2 57172  97.5057 220.1716 0013941 138.7609 221.4682 15.20739099162984
CUBESX-HSE 3 (RS42S)    
1 57178U 23091N   26161.44246744  .00012311  00000+0  41201-3 0  9992
2 57178  97.5097 226.9450 0012154 115.3998 244.8502 15.31043247163391
MONITOR-3 (RS58S)       
1 57180U 23091Q   26161.45215109  .00010420  00000+0  38660-3 0  9991
2 57180  97.5090 224.8493 0013059 121.5687 238.6829 15.27704917163262
MONITOR-4 (RS57S)       
1 57182U 23091S   26161.49708615  .00008839  00000+0  32754-3 0  9995
2 57182  97.5083 224.8653 0013068 121.8033 238.4481 15.27797175163273
MONITOR-2 (RS39S)       
1 57184U 23091U   26161.46117815  .00004368  00000+0  21259-3 0  9991
2 57184  97.5079 219.7876 0012486 131.7104 228.5200 15.18846682162931
SVYATOBOR 1 (RS60S)     
1 57187U 23091X   26161.43891910  .00008092  00000+0  31231-3 0  9995
2 57187  97.5095 225.2188 0010904 114.6692 245.5683 15.26498870163289
VIZARD-METEO (RS38S)    
1 57189U 23091Z   26161.43721741  .00015392  00000+0  44330-3 0  9996
2 57189  97.5096 230.7880 0008613  97.7678 262.4543 15.35809158163650
POLYTECH-UNIVERSE 3 (R*)
1 57191U 23091AB  26161.48926863  .00004589  00000+0  22159-3 0  9997
2 57191  97.5054 219.3200 0016449 148.2731 211.9498 15.19048499162937
UTMN 2 (RS27S)          
1 57203U 23091AP  26161.46374994  .00012516  00000+0  40838-3 0  9994
2 57203  97.5092 228.5923 0009470 103.7625 256.4671 15.31885195163519
